{
  "links" : {
    "next" : "https://api.nasa.gov/neo/rest/v1/feed?start_date=2002-05-16&end_date=2002-05-16&detailed=true&api_key=t0TVs3DtDT2H8Oy2Zy8m2eVrNsAVKAexjcZXUckd",
    "prev" : "https://api.nasa.gov/neo/rest/v1/feed?start_date=2002-05-14&end_date=2002-05-14&detailed=true&api_key=t0TVs3DtDT2H8Oy2Zy8m2eVrNsAVKAexjcZXUckd",
    "self" : "https://api.nasa.gov/neo/rest/v1/feed?start_date=2002-05-15&end_date=2002-05-15&detailed=true&api_key=t0TVs3DtDT2H8Oy2Zy8m2eVrNsAVKAexjcZXUckd"
  },
  "element_count" : 4,
  "near_earth_objects" : {
    "2002-05-15" : [ {
      "links" : {
        "self" : "https://api.nasa.gov/neo/rest/v1/neo/2036236?api_key=t0TVs3DtDT2H8Oy2Zy8m2eVrNsAVKAexjcZXUckd"
      },
      "neo_reference_id" : "2036236",
      "name" : "36236 (1999 VV)",
      "nasa_jpl_url" : "http://ssd.jpl.nasa.gov/sbdb.cgi?sstr=2036236",
      "absolute_magnitude_h" : 15.9,
      "estimated_diameter" : {
        "kilometers" : {
          "estimated_diameter_min" : 1.7561231848,
          "estimated_diameter_max" : 3.9268108181
        },
        "meters" : {
          "estimated_diameter_min" : 1756.1231848042,
          "estimated_diameter_max" : 3926.8108180856
        },
        "miles" : {
          "estimated_diameter_min" : 1.0912040195,
          "estimated_diameter_max" : 2.4400063648
        },
        "feet" : {
          "estimated_diameter_min" : 5761.559189633,
          "estimated_diameter_max" : 12883.2380044079
        }
      },
      "is_potentially_hazardous_asteroid" : false,
      "close_approach_data" : [ {
        "close_approach_date" : "2002-05-15",
        "epoch_date_close_approach" : 1021446000000,
        "relative_velocity" : {
          "kilometers_per_second" : "35.4559506179",
          "kilometers_per_hour" : "127641.4222242942",
          "miles_per_hour" : "79311.4159370899"
        },
        "miss_distance" : {
          "astronomical" : "0.2447368411",
          "lunar" : "95.2026290894",
          "kilometers" : "36612108",
          "miles" : "22749710"
        },
        "orbiting_body" : "Earth"
      } ],
      "orbital_data" : {
        "orbit_id" : "140",
        "orbit_determination_date" : "2017-04-06 09:29:14",
        "orbit_uncertainty" : "0",
        "minimum_orbit_intersection" : ".228225",
        "jupiter_tisserand_invariant" : "4.390",
        "epoch_osculation" : "2458000.5",
        "eccentricity" : ".4236770047855522",
        "semi_major_axis" : "1.332480383458524",
        "inclination" : "58.04213986892562",
        "ascending_node_longitude" : "241.0810227703254",
        "orbital_period" : "561.8102559683801",
        "perihelion_distance" : ".7679390856593122",
        "perihelion_argument" : "19.75408717611656",
        "aphelion_distance" : "1.897021681257735",
        "perihelion_time" : "2458040.313996747823",
        "mean_anomaly" : "334.4877586748384",
        "mean_motion" : ".6407857389137117",
        "equinox" : "J2000"
      }
    }, {
      "links" : {
        "self" : "https://api.nasa.gov/neo/rest/v1/neo/3120892?api_key=t0TVs3DtDT2H8Oy2Zy8m2eVrNsAVKAexjcZXUckd"
      },
      "neo_reference_id" : "3120892",
      "name" : "(2002 GJ8)",
      "nasa_jpl_url" : "http://ssd.jpl.nasa.gov/sbdb.cgi?sstr=3120892",
      "absolute_magnitude_h" : 19.4,
      "estimated_diameter" : {
        "kilometers" : {
          "estimated_diameter_min" : 0.3503926411,
          "estimated_diameter_max" : 0.7835017643
        },
        "meters" : {
          "estimated_diameter_min" : 350.3926411083,
          "estimated_diameter_max" : 783.5017643338
        },
        "miles" : {
          "estimated_diameter_min" : 0.2177238258,
          "estimated_diameter_max" : 0.4868452748
        },
        "feet" : {
          "estimated_diameter_min" : 1149.5821926537,
          "estimated_diameter_max" : 2570.543928497
        }
      },
      "is_potentially_hazardous_asteroid" : true,
      "close_approach_data" : [ {
        "close_approach_date" : "2002-05-15",
        "epoch_date_close_approach" : 1021446000000,
        "relative_velocity" : {
          "kilometers_per_second" : "22.7538419584",
          "kilometers_per_hour" : "81913.8310501795",
          "miles_per_hour" : "50898.0690767074"
        },
        "miss_distance" : {
          "astronomical" : "0.1458277111",
          "lunar" : "56.726978302",
          "kilometers" : "21815516",
          "miles" : "13555533"
        },
        "orbiting_body" : "Earth"
      } ],
      "orbital_data" : {
        "orbit_id" : "33",
        "orbit_determination_date" : "2017-04-06 09:15:14",
        "orbit_uncertainty" : "0",
        "minimum_orbit_intersection" : ".0202174",
        "jupiter_tisserand_invariant" : "2.607",
        "epoch_osculation" : "2458000.5",
        "eccentricity" : ".6813273146701014",
        "semi_major_axis" : "3.234045391712932",
        "inclination" : "30.10883916871144",
        "ascending_node_longitude" : "144.876010609947",
        "orbital_period" : "2124.308533265664",
        "perihelion_distance" : "1.030601929455944",
        "perihelion_argument" : "174.4162799891552",
        "aphelion_distance" : "5.437488853969921",
        "perihelion_time" : "2458088.052642126816",
        "mean_anomaly" : "345.1627244008664",
        "mean_motion" : ".1694669085787544",
        "equinox" : "J2000"
      }
    }, {
      "links" : {
        "self" : "https://api.nasa.gov/neo/rest/v1/neo/3519519?api_key=t0TVs3DtDT2H8Oy2Zy8m2eVrNsAVKAexjcZXUckd"
      },
      "neo_reference_id" : "3519519",
      "name" : "(2010 JL1)",
      "nasa_jpl_url" : "http://ssd.jpl.nasa.gov/sbdb.cgi?sstr=3519519",
      "absolute_magnitude_h" : 25.5,
      "estimated_diameter" : {
        "kilometers" : {
          "estimated_diameter_min" : 0.0211132445,
          "estimated_diameter_max" : 0.0472106499
        },
        "meters" : {
          "estimated_diameter_min" : 21.113244479,
          "estimated_diameter_max" : 47.2106498806
        },
        "miles" : {
          "estimated_diameter_min" : 0.0131191578,
          "estimated_diameter_max" : 0.0293353287
        },
        "feet" : {
          "estimated_diameter_min" : 69.2691770164,
          "estimated_diameter_max" : 154.8905885541
        }
      },
      "is_potentially_hazardous_asteroid" : false,
      "close_approach_data" : [ {
        "close_approach_date" : "2002-05-15",
        "epoch_date_close_approach" : 1021446000000,
        "relative_velocity" : {
          "kilometers_per_second" : "10.9334724059",
          "kilometers_per_hour" : "39360.5006611925",
          "miles_per_hour" : "24457.0844247282"
        },
        "miss_distance" : {
          "astronomical" : "0.2477665861",
          "lunar" : "96.3812026978",
          "kilometers" : "37065352",
          "miles" : "23031344"
        },
        "orbiting_body" : "Earth"
      } ],
      "orbital_data" : {
        "orbit_id" : "7",
        "orbit_determination_date" : "2017-04-06 08:57:39",
        "orbit_uncertainty" : "7",
        "minimum_orbit_intersection" : ".0364102",
        "jupiter_tisserand_invariant" : "6.381",
        "epoch_osculation" : "2458000.5",
        "eccentricity" : ".1928599417044334",
        "semi_major_axis" : ".9283589871279668",
        "inclination" : "20.66296269239206",
        "ascending_node_longitude" : "43.58047431312777",
        "orbital_period" : "326.7174613732584",
        "perihelion_distance" : ".7493157269896803",
        "perihelion_argument" : "40.87492537094243",
        "aphelion_distance" : "1.107402247266253",
        "perihelion_time" : "2458150.963129694580",
        "mean_anomaly" : "194.2092691881997",
        "mean_motion" : "1.101869482233513",
        "equinox" : "J2000"
      }
    }, {
      "links" : {
        "self" : "https://api.nasa.gov/neo/rest/v1/neo/3691354?api_key=t0TVs3DtDT2H8Oy2Zy8m2eVrNsAVKAexjcZXUckd"
      },
      "neo_reference_id" : "3691354",
      "name" : "(2014 SJ262)",
      "nasa_jpl_url" : "http://ssd.jpl.nasa.gov/sbdb.cgi?sstr=3691354",
      "absolute_magnitude_h" : 25.5,
      "estimated_diameter" : {
        "kilometers" : {
          "estimated_diameter_min" : 0.0211132445,
          "estimated_diameter_max" : 0.0472106499
        },
        "meters" : {
          "estimated_diameter_min" : 21.113244479,
          "estimated_diameter_max" : 47.2106498806
        },
        "miles" : {
          "estimated_diameter_min" : 0.0131191578,
          "estimated_diameter_max" : 0.0293353287
        },
        "feet" : {
          "estimated_diameter_min" : 69.2691770164,
          "estimated_diameter_max" : 154.8905885541
        }
      },
      "is_potentially_hazardous_asteroid" : false,
      "close_approach_data" : [ {
        "close_approach_date" : "2002-05-15",
        "epoch_date_close_approach" : 1021446000000,
        "relative_velocity" : {
          "kilometers_per_second" : "6.3326311471",
          "kilometers_per_hour" : "22797.4721295477",
          "miles_per_hour" : "14165.4626129404"
        },
        "miss_distance" : {
          "astronomical" : "0.1192183277",
          "lunar" : "46.3759307861",
          "kilometers" : "17834808",
          "miles" : "11082036"
        },
        "orbiting_body" : "Earth"
      } ],
      "orbital_data" : {
        "orbit_id" : "11",
        "orbit_determination_date" : "2017-04-06 08:38:21",
        "orbit_uncertainty" : "7",
        "minimum_orbit_intersection" : ".0641647",
        "jupiter_tisserand_invariant" : "5.520",
        "epoch_osculation" : "2458000.5",
        "eccentricity" : ".1187178282261863",
        "semi_major_axis" : "1.131481611757481",
        "inclination" : "6.066858416594299",
        "ascending_node_longitude" : "199.1197734576529",
        "orbital_period" : "439.612140441431",
        "perihelion_distance" : ".9971545721317682",
        "perihelion_argument" : "96.62461905668721",
        "aphelion_distance" : "1.265808651383194",
        "perihelion_time" : "2458178.564468622011",
        "mean_anomaly" : "214.182351198137",
        "mean_motion" : ".8189036809550131",
        "equinox" : "J2000"
      }
    } ]
  }
}